[{"OBJECT_NAME":"ONEWEB-0062","OBJECT_ID":"2020-008AJ","EPOCH":"2026-03-09T21:24:14.907744","MEAN_MOTION":13.10370373,"ECCENTRICITY":0.00021799,"INCLINATION":87.8778,"RA_OF_ASC_NODE":56.0325,"ARG_OF_PERICENTER":94.2971,"MEAN_ANOMALY":265.8406,"EPHEMERIS_TYPE":0,"CLASSIFICATION_TYPE":"U","NORAD_CAT_ID":45163,"ELEMENT_SET_NO":999,"REV_AT_EPOCH":29518,"BSTAR":6.7688974e-5,"MEAN_MOTION_DOT":3.6e-7,"MEAN_MOTION_DDOT":0},{"OBJECT_NAME":"OPS 4682 DEB","OBJECT_ID":"1965-027EA","EPOCH":"2026-03-09T06:39:30.300192","MEAN_MOTION":13.09775262,"ECCENTRICITY":0.00364172,"INCLINATION":90.2605,"RA_OF_ASC_NODE":6.5806,"ARG_OF_PERICENTER":196.1057,"MEAN_ANOMALY":163.8916,"EPHEMERIS_TYPE":0,"CLASSIFICATION_TYPE":"U","NORAD_CAT_ID":38421,"ELEMENT_SET_NO":999,"REV_AT_EPOCH":65554,"BSTAR":0.0020169417,"MEAN_MOTION_DOT":7.08e-6,"MEAN_MOTION_DDOT":0}]
